start=new Date('2022-07-21T00:00:00.000Z').valueOf();
sats=[{"TLE_LINE2":"2 45730  53.0541  77.6128 0001638  76.7105 283.4066 15.06404962117177","CENTER_NAME":"EARTH","GP_ID":"208510688","MEAN_MOTION_DDOT":"0.0000000000000","REF_FRAME":"TEME","TIME_SYSTEM":"UTC","DECAY_DATE":null,"MEAN_MOTION":"15.06404962","NORAD_CAT_ID":"45730","EPHEMERIS_TYPE":"0","FILE":"3518268","MEAN_ELEMENT_THEORY":"SGP4","ELEMENT_SET_NO":"999","MEAN_ANOMALY":"283.4066","RA_OF_ASC_NODE":"77.6128","OBJECT_NAME":"STARLINK-1461","APOAPSIS":"548.333","COUNTRY_CODE":"US","INCLINATION":"53.0541","TLE_LINE1":"1 45730U 20038A   22201.83332683  .00002128  00000-0  16167-3 0  9992","SITE":"AFETR","CLASSIFICATION_TYPE":"U","REV_AT_EPOCH":"11717","PERIOD":"95.592","ECCENTRICITY":"0.00016380","OBJECT_ID":"2020-038A","EPOCH":"2022-07-20T19:59:59.438112","RCS_SIZE":"LARGE","ARG_OF_PERICENTER":"76.7105","OBJECT_TYPE":"PAYLOAD","PERIAPSIS":"546.064","MEAN_MOTION_DOT":"0.00002128","BSTAR":"0.00016167000000","LAUNCH_DATE":"2020-06-13","SEMIMAJOR_AXIS":"6925.333"},{"COUNTRY_CODE":"US","INCLINATION":"53.0537","TLE_LINE1":"1 45731U 20038B   22201.84806946  .00002602  00000-0  19348-3 0  9993","SITE":"AFETR","CLASSIFICATION_TYPE":"U","REV_AT_EPOCH":"11605","ECCENTRICITY":"0.00013710","PERIOD":"95.592","EPOCH":"2022-07-20T20:21:13.201344","OBJECT_ID":"2020-038B","RCS_SIZE":"LARGE","ARG_OF_PERICENTER":"82.5929","MEAN_MOTION_DOT":"0.00002602","OBJECT_TYPE":"PAYLOAD","PERIAPSIS":"546.244","BSTAR":"0.00019348000000","LAUNCH_DATE":"2020-06-13","SEMIMAJOR_AXIS":"6925.328","CENTER_NAME":"EARTH","TLE_LINE2":"2 45731  53.0537  77.5333 0001371  82.5929 277.5216 15.06406574116051","GP_ID":"208531681","MEAN_MOTION_DDOT":"0.0000000000000","TIME_SYSTEM":"UTC","REF_FRAME":"TEME","MEAN_MOTION":"15.06406574","DECAY_DATE":null,"NORAD_CAT_ID":"45731","EPHEMERIS_TYPE":"0","FILE":"3518363","MEAN_ELEMENT_THEORY":"SGP4","MEAN_ANOMALY":"277.5216","ELEMENT_SET_NO":"999","RA_OF_ASC_NODE":"77.5333","OBJECT_NAME":"STARLINK-1465","APOAPSIS":"548.143"},{"ELEMENT_SET_NO":"999","MEAN_ANOMALY":"286.8359","MEAN_ELEMENT_THEORY":"SGP4","FILE":"3518204","EPHEMERIS_TYPE":"0","NORAD_CAT_ID":"45732","APOAPSIS":"548.186","OBJECT_NAME":"STARLINK-1466","RA_OF_ASC_NODE":"77.5803","GP_ID":"208508850","CENTER_NAME":"EARTH","TLE_LINE2":"2 45732  53.0546  77.5803 0001428  73.2787 286.8359 15.06405340117171","DECAY_DATE":null,"MEAN_MOTION":"15.06405340","TIME_SYSTEM":"UTC","REF_FRAME":"TEME","MEAN_MOTION_DDOT":"0.0000000000000","OBJECT_TYPE":"PAYLOAD","BSTAR":"0.00009231300000","PERIAPSIS":"546.208","MEAN_MOTION_DOT":"0.00001094","ARG_OF_PERICENTER":"73.2787","RCS_SIZE":"LARGE","SEMIMAJOR_AXIS":"6925.332","LAUNCH_DATE":"2020-06-13","INCLINATION":"53.0546","COUNTRY_CODE":"US","EPOCH":"2022-07-20T20:05:17.854944","OBJECT_ID":"2020-038C","PERIOD":"95.592","ECCENTRICITY":"0.00014280","REV_AT_EPOCH":"11717","SITE":"AFETR","CLASSIFICATION_TYPE":"U","TLE_LINE1":"1 45732U 20038C   22201.83701221  .00001094  00000-0  92313-4 0  9991"},{"LAUNCH_DATE":"2020-06-13","SEMIMAJOR_AXIS":"6925.290","RCS_SIZE":"LARGE","ARG_OF_PERICENTER":"64.7639","BSTAR":"0.00019869000000","OBJECT_TYPE":"PAYLOAD","PERIAPSIS":"545.988","MEAN_MOTION_DOT":"0.00002681","TLE_LINE1":"1 45733U 20038D   22201.84437271  .00002681  00000-0  19869-3 0  9991","SITE":"AFETR","CLASSIFICATION_TYPE":"U","REV_AT_EPOCH":"11716","ECCENTRICITY":"0.00016850","PERIOD":"95.591","OBJECT_ID":"2020-038D","EPOCH":"2022-07-20T20:15:53.802144","COUNTRY_CODE":"US","INCLINATION":"53.0540","RA_OF_ASC_NODE":"77.5415","OBJECT_NAME":"STARLINK-1467","APOAPSIS":"548.321","NORAD_CAT_ID":"45733","EPHEMERIS_TYPE":"0","FILE":"3518204","MEAN_ELEMENT_THEORY":"SGP4","ELEMENT_SET_NO":"999","MEAN_ANOMALY":"295.3525","MEAN_MOTION_DDOT":"0.0000000000000","REF_FRAME":"TEME","TIME_SYSTEM":"UTC","DECAY_DATE":null,"MEAN_MOTION":"15.06419241","TLE_LINE2":"2 45733  53.0540  77.5415 0001685  64.7639 295.3525 15.06419241117165","CENTER_NAME":"EARTH","GP_ID":"208509348"},{"FILE":"3518200","MEAN_ELEMENT_THEORY":"SGP4","ELEMENT_SET_NO":"999","MEAN_ANOMALY":"294.8714","NORAD_CAT_ID":"45734","EPHEMERIS_TYPE":"0","APOAPSIS":"548.348","RA_OF_ASC_NODE":"77.6388","OBJECT_NAME":"STARLINK-1468","CENTER_NAME":"EARTH","TLE_LINE2":"2 45734  53.0544  77.6388 0001578  65.2439 294.8714 15.06386544117168","GP_ID":"208508856","MEAN_MOTION_DDOT":"0.0000000000000","REF_FRAME":"TEME","TIME_SYSTEM":"UTC","DECAY_DATE":null,"MEAN_MOTION":"15.06386544","ARG_OF_PERICENTER":"65.2439","MEAN_MOTION_DOT":"-0.00002279","OBJECT_TYPE":"PAYLOAD","PERIAPSIS":"546.162","BSTAR":"-0.00013416000000","RCS_SIZE":"LARGE","LAUNCH_DATE":"2020-06-13","SEMIMAJOR_AXIS":"6925.390","COUNTRY_CODE":"US","INCLINATION":"53.0544","PERIOD":"95.593","ECCENTRICITY":"0.00015780","OBJECT_ID":"2020-038E","EPOCH":"2022-07-20T19:49:23.493504","TLE_LINE1":"1 45734U 20038E   22201.82596636 -.00002279  00000-0 -13416-3 0  9998","CLASSIFICATION_TYPE":"U","SITE":"AFETR","REV_AT_EPOCH":"11716"},{"COUNTRY_CODE":"US","INCLINATION":"53.0551","ECCENTRICITY":"0.00013650","PERIOD":"95.592","EPOCH":"2022-07-20T20:42:27.104544","OBJECT_ID":"2020-038F","CLASSIFICATION_TYPE":"U","SITE":"AFETR","TLE_LINE1":"1 45735U 20038F   22201.86281371  .00002333  00000-0  17545-3 0  9996","REV_AT_EPOCH":"11605","ARG_OF_PERICENTER":"91.5589","OBJECT_TYPE":"PAYLOAD","BSTAR":"0.00017545000000","PERIAPSIS":"546.250","MEAN_MOTION_DOT":"0.00002333","RCS_SIZE":"LARGE","SEMIMAJOR_AXIS":"6925.330","LAUNCH_DATE":"2020-06-13","CENTER_NAME":"EARTH","TLE_LINE2":"2 45735  53.0551  77.4778 0001365  91.5589 268.5556 15.06405997116053","GP_ID":"208531181","REF_FRAME":"TEME","TIME_SYSTEM":"UTC","MEAN_MOTION_DDOT":"0.0000000000000","DECAY_DATE":null,"MEAN_MOTION":"15.06405997","FILE":"3518363","MEAN_ANOMALY":"268.5556","ELEMENT_SET_NO":"999","MEAN_ELEMENT_THEORY":"SGP4","NORAD_CAT_ID":"45735","EPHEMERIS_TYPE":"0","APOAPSIS":"548.140","RA_OF_ASC_NODE":"77.4778","OBJECT_NAME":"STARLINK-1471"},{"DECAY_DATE":null,"MEAN_MOTION":"15.38341587","REF_FRAME":"TEME","TIME_SYSTEM":"UTC","MEAN_MOTION_DDOT":"0.0000000000000","GP_ID":"208531932","TLE_LINE2":"2 45736  53.0631  41.7208 0003425  61.9489 298.1860 15.38341587116566","CENTER_NAME":"EARTH","APOAPSIS":"453.354","OBJECT_NAME":"STARLINK-1472","RA_OF_ASC_NODE":"41.7208","ELEMENT_SET_NO":"999","MEAN_ANOMALY":"298.1860","MEAN_ELEMENT_THEORY":"SGP4","FILE":"3518363","EPHEMERIS_TYPE":"0","NORAD_CAT_ID":"45736","EPOCH":"2022-07-20T19:39:12.185856","OBJECT_ID":"2020-038G","ECCENTRICITY":"0.00034250","PERIOD":"93.607","REV_AT_EPOCH":"11656","CLASSIFICATION_TYPE":"U","SITE":"AFETR","TLE_LINE1":"1 45736U 20038G   22201.81889104  .00011897  00000-0  31989-3 0  9993","INCLINATION":"53.0631","COUNTRY_CODE":"US","SEMIMAJOR_AXIS":"6829.150","LAUNCH_DATE":"2020-06-13","OBJECT_TYPE":"PAYLOAD","BSTAR":"0.00031989000000","PERIAPSIS":"448.676","MEAN_MOTION_DOT":"0.00011897","ARG_OF_PERICENTER":"61.9489","RCS_SIZE":"LARGE"},{"DECAY_DATE":null,"MEAN_MOTION":"15.06401884","TIME_SYSTEM":"UTC","REF_FRAME":"TEME","MEAN_MOTION_DDOT":"0.0000000000000","GP_ID":"208508863","TLE_LINE2":"2 45738  53.0538  77.5280 0001478  81.1224 278.9932 15.06401884117174","CENTER_NAME":"EARTH","OBJECT_NAME":"STARLINK-1474","RA_OF_ASC_NODE":"77.5280","APOAPSIS":"548.231","EPHEMERIS_TYPE":"0","NORAD_CAT_ID":"45738","MEAN_ANOMALY":"278.9932","ELEMENT_SET_NO":"999","MEAN_ELEMENT_THEORY":"SGP4","FILE":"3518200","REV_AT_EPOCH":"11717","CLASSIFICATION_TYPE":"U","SITE":"AFETR","TLE_LINE1":"1 45738U 20038J   22201.85176233  .00001474  00000-0  11780-3 0  9998","EPOCH":"2022-07-20T20:26:32.265312","OBJECT_ID":"2020-038J","ECCENTRICITY":"0.00014780","PERIOD":"95.592","INCLINATION":"53.0538","COUNTRY_CODE":"US","SEMIMAJOR_AXIS":"6925.343","LAUNCH_DATE":"2020-06-13","RCS_SIZE":"LARGE","BSTAR":"0.00011780000000","OBJECT_TYPE":"PAYLOAD","PERIAPSIS":"546.184","MEAN_MOTION_DOT":"0.00001474","ARG_OF_PERICENTER":"81.1224"},{"INCLINATION":"53.0566","COUNTRY_CODE":"US","OBJECT_ID":"2020-038K","EPOCH":"2022-07-20T20:46:24.918816","ECCENTRICITY":"0.00015540","PERIOD":"95.592","REV_AT_EPOCH":"11661","SITE":"AFETR","CLASSIFICATION_TYPE":"U","TLE_LINE1":"1 45739U 20038K   22201.86556619  .00002218  00000-0  16772-3 0  9993","PERIAPSIS":"546.135","OBJECT_TYPE":"PAYLOAD","MEAN_MOTION_DOT":"0.00002218","BSTAR":"0.00016772000000","ARG_OF_PERICENTER":"65.1432","RCS_SIZE":"LARGE","SEMIMAJOR_AXIS":"6925.346","LAUNCH_DATE":"2020-06-13","GP_ID":"208532933","TLE_LINE2":"2 45739  53.0566  37.4411 0001554  65.1432 294.9718 15.06400694116611","CENTER_NAME":"EARTH","DECAY_DATE":null,"MEAN_MOTION":"15.06400694","TIME_SYSTEM":"UTC","REF_FRAME":"TEME","MEAN_MOTION_DDOT":"0.0000000000000","MEAN_ANOMALY":"294.9718","ELEMENT_SET_NO":"999","MEAN_ELEMENT_THEORY":"SGP4","FILE":"3518363","EPHEMERIS_TYPE":"0","NORAD_CAT_ID":"45739","APOAPSIS":"548.288","OBJECT_NAME":"STARLINK-1475","RA_OF_ASC_NODE":"37.4411"},{"ECCENTRICITY":"0.00012050","PERIOD":"95.592","EPOCH":"2022-07-20T20:37:08.564160","OBJECT_ID":"2020-038L","TLE_LINE1":"1 45740U 20038L   22201.85912690  .00001630  00000-0  12830-3 0  9997","CLASSIFICATION_TYPE":"U","SITE":"AFETR","REV_AT_EPOCH":"11605","COUNTRY_CODE":"US","INCLINATION":"53.0558","LAUNCH_DATE":"2020-06-13","SEMIMAJOR_AXIS":"6925.343","ARG_OF_PERICENTER":"76.8485","OBJECT_TYPE":"PAYLOAD","MEAN_MOTION_DOT":"0.00001630","PERIAPSIS":"546.374","BSTAR":"0.00012830000000","RCS_SIZE":"LARGE","MEAN_MOTION_DDOT":"0.0000000000000","TIME_SYSTEM":"UTC","REF_FRAME":"TEME","MEAN_MOTION":"15.06401770","DECAY_DATE":null,"TLE_LINE2":"2 45740  53.0558  77.4891 0001205  76.8485 283.2638 15.06401770116056","CENTER_NAME":"EARTH","GP_ID":"208531682","APOAPSIS":"548.043","RA_OF_ASC_NODE":"77.4891","OBJECT_NAME":"STARLINK-1479","FILE":"3518363","MEAN_ELEMENT_THEORY":"SGP4","MEAN_ANOMALY":"283.2638","ELEMENT_SET_NO":"999","NORAD_CAT_ID":"45740","EPHEMERIS_TYPE":"0"}];
